#dP2023  2 26  0  0  0.00000000      96 __u+U ITR14 FIT  IAC
## 2251      0.00000000   900.00000000 60001 0.0000000000000
+  121   C06C07C08C09C10C11C12C13C14C16C19C20C21C22C23C24C25
+        C26C27C28C29C30C32C33C34C35C36C37C38C39C40C41C42C43
+        C44C45C46E01E02E03E04E05E07E08E09E10E11E12E14E15E18
+        E19E21E24E25E26E27E30E31E33E34E36G01G02G03G04G05G06
+        G07G08G09G10G11G12G13G14G15G16G17G18G19G20G21G22G23
+        G24G25G26G27G28G29G30G31G32J02J03J04R01R02R03R04R05
+        R06R07R08R09R10R11R12R13R14R15R16R17R18R19R20R21R22
+        R24R25  0  0  0  0  0  0  0  0  0  0  0  0  0  0  0
++        12 13 13 12 12 12 12 12 11 12 10  9 10 10  9 10 10
++        10  9  9  9  9  9 10 10  9  9 10 11 11 12 10 10 10
++        10 10 10  5  5  5  5  4  4  4  5  5  5  5  6  5  5
++         6  4  4  4  4  4  5  5  5  5  5  4  5  4  4  5  4
++         5  5  4  5  4  4  6  5  5  4  4  5  4  5  5  5  5
++         5  4  4  5  4  4  5  4  4 10 10 10  7  6  6  6  6
++        19  6  6  6 19  6  6  8  6  6  6  6  6  8  7  6  6
++         6  9  0  0  0  0  0  0  0  0  0  0  0  0  0  0  0
%c M  cc GPS ccc cccc cccc cccc cccc ccccc ccccc ccccc ccccc
%c cc cc ccc ccc cccc cccc cccc cccc ccccc ccccc ccccc ccccc
%f  0.0000000  0.000000000  0.00000000000  0.000000000000000
%f  0.0000000  0.000000000  0.00000000000  0.000000000000000
%i    0    0    0    0      0      0      0      0         0
%i    0    0    0    0      0      0      0      0         0
/* INFORMATION & ANALYSIS CENTER (IAC)            RAPID DATA
/* S/V CLOCKS ARE ALIGNED TO GNSS TIME                      
/* G:C1WC2W R:C1PC2P E:C1XC5X C:C2IC6I J:C1CC2S             
/* PCV:IGS20_2247 OL/AL:FES2004  NONE     YN ORB:CoN CLK:CoN
*  2023 02 26 22 15  0.00000000
PC06  -2234.254982  28675.883788  30930.729447 999999.999999
PC07 -17584.287239  29885.139395 -24046.652159 999999.999999
PC08 -10165.678518  40687.832251  -3227.299304 999999.999999
PC09   5723.703056  33045.645528  26274.133450 999999.999999
PC10 -10531.503940  30071.657600 -27538.140010 999999.999999
PC11  22311.265345  16689.431936  -1351.851358 999999.999999
PC12   8984.692663  19949.261686 -17282.273999 999999.999999
PC13  -5754.232337  41559.509404   2531.785085 999999.999999
PC14  17578.025877   6861.133872  20562.359448 999999.999999
PC16  -3765.480869  27286.430209  32211.781098 999999.999999
PC19 -23716.891758    861.247840 -14667.101746 999999.999999
PC20 -10401.287375 -12180.725631 -22836.588920 999999.999999
PC21 -10318.911960  18873.907028  17810.583640 999999.999999
PC22 -24042.007582  14000.075343   2354.085631 999999.999999
PC23  14664.073640 -13946.571947 -19221.774839 999999.999999
PC24   6913.149741  24483.296067 -11457.534358 999999.999999
PC25  15804.756379   5942.717442 -22228.134802 999999.999999
PC26  -3959.518390  27265.108982   4297.054789 999999.999999
PC27    -53.630879 -17899.962905  21385.165333 999999.999999
PC28  16717.698358  -6645.198191  21338.207003 999999.999999
PC29 -25199.168847  -8935.418273  -7988.328936 999999.999999
PC30 -17589.571766 -19114.477869  10155.867752 999999.999999
PC32  10235.229114 -18942.595176 -17726.994623 999999.999999
PC33  23653.986774   -863.405635  14778.247563 999999.999999
PC34  18504.502167  18855.279209  -9043.027246 999999.999999
PC35 -17368.970436   6435.351784 -20869.280712 999999.999999
PC36 -15517.017065  -7135.674187  22085.172790 999999.999999
PC37   5504.151295 -26784.665507  -5634.257714 999999.999999
PC38 -14316.992843  37862.462819 -11493.484494 999999.999999
PC39  -9294.376434  23053.019289  34118.432640 999999.999999
PC40 -24338.503406  24055.961667 -24790.574333 999999.999999
PC41  24243.919755 -13708.715003  -1651.445421 999999.999999
PC42   9097.126968  13038.211999  22981.287801 999999.999999
PC43  25212.091437   9591.216725   7196.077226 999999.999999
PC44    467.873114  17956.541833 -21377.031509 999999.999999
PC45 -14439.678556  14346.366940  19071.081120 999999.999999
PC46  -7835.758813 -23508.290895  12864.821715 999999.999999
PE01  12887.527388  10740.212574 -24393.004528   -599.725915
PE02 -13186.968538 -10316.603342  24400.496460 999999.999999
PE03 -25078.067485 -10293.223457 -11897.880814 999999.999999
PE04  28875.098334  -2130.315134  -6151.524889    -66.968520
PE05  -6408.533119 -16965.338655 -23388.329500    -91.502649
PE07 -15858.859899  13579.038775  20992.534886    -25.930950
PE08 -28912.545817   2049.342860   6027.940887    -42.599546
PE09  15999.392997 -13405.000976 -20978.940374   -850.284313
PE10  12994.536118  -9695.651897  24762.087975 999999.999999
PE11   5952.195289 -19548.601174  21401.319011 999999.999999
PE12  17509.312332    730.766581  23861.455784 999999.999999
PE14 -22442.132433 -13588.255153  10821.773892 999999.999999
PE15 -17542.688403  -1079.959788 -23805.301424 999999.999999
PE18  10561.498656  18525.545936 -19058.553217 999999.999999
PE19  23249.137986  11681.214559  14127.884393 999999.999999
PE21  -1834.586880  23811.239135 -17490.500652   -514.472532
PE24  17304.128256 -24023.529713   -751.350257  -1136.232318
PE25   2135.555261 -23960.848101  17252.835370   -600.226274
PE26   8724.818306  27570.396350  -6325.561886     30.110334
PE27 -16733.836358  24406.412886    -83.831702   -521.996029
PE30 -21623.348105   9904.106330  17593.339448 999999.999999
PE31  21629.706262 -10630.001282 -17192.300167 999999.999999
PE33  18176.537215  20246.827232  11682.375637 999999.999999
PE34 -18249.639716 -20087.012846 -11818.609206 999999.999999
PE36  -8229.297483 -27509.840864   7162.022800 999999.999999
PG01  15919.773059   3228.624127  20775.312149 999999.999999
PG02 -15237.641401   1983.942132 -21010.847346 999999.999999
PG03  19611.698693  -7782.526344  15939.235922 999999.999999
PG04  25767.942156   -308.240306  -6661.780071 999999.999999
PG05 -13169.731835  -7694.234245 -21916.338466 999999.999999
PG06  -4382.145787 -24936.644157   7927.406031 999999.999999
PG07  10868.537012 -12089.692098 -20473.787645 999999.999999
PG08  25330.503076   6686.530110  -5563.314966 999999.999999
PG09  19594.181183  -8908.882648 -15664.489823 999999.999999
PG10  -9324.508645  22811.161667   9660.940755 999999.999999
PG11 -12266.735352 -22861.827550  -5757.600865 999999.999999
PG12 -19763.498384   4750.099739  16762.735120 999999.999999
PG13 -20414.144645 -13408.735644 -10848.460482 999999.999999
PG14  12122.763190 -22499.457998   6979.159331 999999.999999
PG15 -25867.278604  -4119.114928  -5652.095884 999999.999999
PG16  10656.184873  10919.264906 -22030.567336 999999.999999
PG17   6692.857914 -13899.574244  22064.104940 999999.999999
PG18  -8128.450073  15901.675756 -19608.993659 999999.999999
PG19  -5332.855658 -15695.015625  20586.965162 999999.999999
PG20  -6055.719700 -17613.872032 -18977.911628 999999.999999
PG21  18615.206794  11039.362679  16509.104486 999999.999999
PG22   8803.583300  16029.960979  19758.157771 999999.999999
PG23 -16596.082027  20541.956360  -1956.604399 999999.999999
PG24 -18307.126475  -6696.179209  17867.596053 999999.999999
PG25 -19658.136573  14480.039641   9801.591313 999999.999999
PG26    708.574668  20749.215808 -16485.491834 999999.999999
PG27  18224.823086  12810.169512 -15011.734210 999999.999999
PG28   3790.156038  24493.574737   9522.830742 999999.999999
PG29 -22386.241216   4618.813421 -13640.580216 999999.999999
PG30   1995.596872 -22430.793033 -13776.999069 999999.999999
PG31   5443.500093  25108.163586   5542.737986 999999.999999
PG32  -2563.208950  15111.783558  21856.783311 999999.999999
PJ02 -34338.945571  24133.408282   9241.294368 999999.999999
PJ03 -22453.026401  19251.513127 -25446.259113 999999.999999
PJ04 -26547.331011  32618.094868   9366.596169 999999.999999
PR01  16111.790555   4492.646788  19259.587927     23.778542
PR02  24732.525077  -5282.944551   3630.402501    -23.221833
PR03  18203.765564 -11915.303948 -13315.140359     73.218402
PR04   1860.214281 -11513.621740 -22654.356282    177.340541
PR05 -15504.355996  -5072.464811 -19585.165775    108.395073
PR06 -24475.975023   6710.328179  -2454.162352    -97.401979
PR07 -17481.280572  12073.329563  14122.981902     50.706092
PR08  -1496.546816  11615.036930  22719.184536    -69.627020
PR09 -12240.669695   6192.663387  21533.826905    106.277511
PR10 -10272.972422  20156.897533  11689.624558    -90.936786
PR11  -2544.740306  24622.605944  -6180.816812    -10.112278
PR12   7114.122085  13087.821808 -20683.077822     25.283742
PR13  11865.256212  -4152.658064 -22217.500053    -32.458507
PR14   9887.649991 -21236.736339 -10073.735006     24.364563
PR15   2145.669481 -24349.751913   7302.895927     90.798770
PR16  -6954.421253 -13319.259253  20606.204395     11.740990
PR17   5819.402655  -9004.907232  23156.714207    608.303999
PR18  -8212.328222 -18094.390755  15974.923603     68.817381
PR19 -17074.775506 -18861.413270   1808.102419 999999.999999
PR20 -17346.216097  -6967.840859 -17319.931704    -88.427190
PR21  -4437.461184  10125.700474 -22984.187818   -376.369966
PR22   8104.248813  18864.675984 -15122.115925     72.655947
PR24  17587.578452   5638.171850  17609.589141    149.745571
PR25  -6726.042573   8668.792002 -23020.536628 999999.999999
EOF
